YUNHAI-2 1              
1 43909U 18112A   22251.16177977  .00000119  00000+0  11243-3 0  9999
2 43909  50.0118 127.8703 0000417  30.6293 329.4647 14.27805037194157
YUNHAI-2 2              
1 43910U 18112B   22251.18939968  .00000099  00000+0  10466-3 0  9992
2 43910  50.0121 191.3220 0004956  60.4134 299.7261 14.27801432193278
YUNHAI-2 3              
1 43911U 18112C   22251.14086017 -.00000470  00000+0 -12415-3 0  9998
2 43911  50.0126  70.9887 0000673 334.0392  26.0496 14.27797614194945
YUNHAI-2 4              
1 43912U 18112D   22251.25905072  .00000108  00000+0  10817-3 0  9992
2 43912  50.0139  10.6900 0015689 189.3063 170.7563 14.27799319190623
YUNHAI-2 5              
1 43913U 18112E   22250.71809992 -.00000073  00000+0  35298-4 0  9990
2 43913  50.0083 252.6076 0005410 207.5081 152.5528 14.27797101192356
HONGYAN 1 (CHONGQING)   
1 43914U 18112F   22251.07241262 -.00000071  00000+0  10000-3 0  9992
2 43914  50.0081 265.4388 0006270  20.7734 339.3397 13.43714082181348
YUNHAI-2 6              
1 43915U 18112G   22251.09027336  .00000084  00000+0  98724-4 0  9992
2 43915  50.0155 311.4568 0007637 172.5921 187.5109 14.27797384191507
CHINASAT 2D (ZX 2D)     
1 43920U 19001A   22250.89427828 -.00000357  00000+0  00000+0 0  9992
2 43920   0.0452 330.6028 0000766  65.8182  42.4985  1.00272492 40241
IRIDIUM 180             
1 43922U 19002A   22250.85888065  .00000186  00000+0  59208-4 0  9993
2 43922  86.4009 209.5735 0002327  71.2529 288.8919 14.34218305191434
IRIDIUM 176             
1 43923U 19002B   22250.84181529  .00000632  00000+0  96388-4 0  9990
2 43923  86.6143 209.6172 0002426  86.3248 273.8247 14.72253325196455
IRIDIUM 168             
1 43924U 19002C   22250.92229959  .00000186  00000+0  59488-4 0  9994
2 43924  86.4010 209.5854 0002141  79.7014 280.4423 14.34215619191428
IRIDIUM 173             
1 43925U 19002D   22250.63054029  .00000188  00000+0  60179-4 0  9998
2 43925  86.4007 209.6524 0002237  79.4173 280.7275 14.34221458191368
IRIDIUM 169             
1 43926U 19002E   22250.72650923  .00000130  00000+0  36070-4 0  9994
2 43926  86.4199 241.1872 0004080 171.6255 188.5013 14.38606309192049
IRIDIUM 172             
1 43927U 19002F   22250.62420430  .00000187  00000+0  59652-4 0  9995
2 43927  86.4008 209.6589 0002235  77.5826 282.5619 14.34218178191372
IRIDIUM 175             
1 43928U 19002G   22250.97157861  .00000644  00000+0  98231-4 0  9993
2 43928  86.6147 209.3959 0002315  84.8304 275.3177 14.72257892196460
IRIDIUM 171             
1 43929U 19002H   22250.60517457  .00000183  00000+0  58323-4 0  9991
2 43929  86.4016 209.8198 0002124  79.3783 280.7652 14.34217082191369
IRIDIUM 170             
1 43930U 19002J   22250.71206940  .00000614  00000+0  93542-4 0  9998
2 43930  86.6143 209.6766 0002390  89.6822 270.4669 14.72254305196445
