let sat = [{"OBJECT_NAME":"YUNHAI-2 1","OBJECT_ID":"2018-112A","EPOCH":"2022-09-08T03:52:57.772128","MEAN_MOTION":14.27805037,"ECCENTRICITY":4.17e-5,"INCLINATION":50.0118,"RA_OF_ASC_NODE":127.8703,"ARG_OF_PERICENTER":30.6293,"MEAN_ANOMALY":329.4647,"EPHEMERIS_TYPE":0,"CLASSIFICATION_TYPE":"U","NORAD_CAT_ID":43909,"ELEMENT_SET_NO":999,"REV_AT_EPOCH":19415,"BSTAR":0.00011243,"MEAN_MOTION_DOT":1.19e-6,"MEAN_MOTION_DDOT":0},{"OBJECT_NAME":"YUNHAI-2 2","OBJECT_ID":"2018-112B","EPOCH":"2022-09-08T04:32:44.132352","MEAN_MOTION":14.27801432,"ECCENTRICITY":0.0004956,"INCLINATION":50.0121,"RA_OF_ASC_NODE":191.322,"ARG_OF_PERICENTER":60.4134,"MEAN_ANOMALY":299.7261,"EPHEMERIS_TYPE":0,"CLASSIFICATION_TYPE":"U","NORAD_CAT_ID":43910,"ELEMENT_SET_NO":999,"REV_AT_EPOCH":19327,"BSTAR":0.00010466,"MEAN_MOTION_DOT":9.9e-7,"MEAN_MOTION_DDOT":0},{"OBJECT_NAME":"YUNHAI-2 3","OBJECT_ID":"2018-112C","EPOCH":"2022-09-08T03:22:50.318688","MEAN_MOTION":14.27797614,"ECCENTRICITY":6.73e-5,"INCLINATION":50.0126,"RA_OF_ASC_NODE":70.9887,"ARG_OF_PERICENTER":334.0392,"MEAN_ANOMALY":26.0496,"EPHEMERIS_TYPE":0,"CLASSIFICATION_TYPE":"U","NORAD_CAT_ID":43911,"ELEMENT_SET_NO":999,"REV_AT_EPOCH":19494,"BSTAR":-0.00012415,"MEAN_MOTION_DOT":-4.7e-6,"MEAN_MOTION_DDOT":0},{"OBJECT_NAME":"YUNHAI-2 4","OBJECT_ID":"2018-112D","EPOCH":"2022-09-08T06:13:01.982208","MEAN_MOTION":14.27799319,"ECCENTRICITY":0.0015689,"INCLINATION":50.0139,"RA_OF_ASC_NODE":10.69,"ARG_OF_PERICENTER":189.3063,"MEAN_ANOMALY":170.7563,"EPHEMERIS_TYPE":0,"CLASSIFICATION_TYPE":"U","NORAD_CAT_ID":43912,"ELEMENT_SET_NO":999,"REV_AT_EPOCH":19062,"BSTAR":0.00010817,"MEAN_MOTION_DOT":1.08e-6,"MEAN_MOTION_DDOT":0},{"OBJECT_NAME":"YUNHAI-2 5","OBJECT_ID":"2018-112E","EPOCH":"2022-09-07T17:14:03.833088","MEAN_MOTION":14.27797101,"ECCENTRICITY":0.000541,"INCLINATION":50.0083,"RA_OF_ASC_NODE":252.6076,"ARG_OF_PERICENTER":207.5081,"MEAN_ANOMALY":152.5528,"EPHEMERIS_TYPE":0,"CLASSIFICATION_TYPE":"U","NORAD_CAT_ID":43913,"ELEMENT_SET_NO":999,"REV_AT_EPOCH":19235,"BSTAR":3.5298e-5,"MEAN_MOTION_DOT":-7.3e-7,"MEAN_MOTION_DDOT":0},{"OBJECT_NAME":"HONGYAN 1 (CHONGQING)","OBJECT_ID":"2018-112F","EPOCH":"2022-09-08T01:44:16.450368","MEAN_MOTION":13.43714082,"ECCENTRICITY":0.000627,"INCLINATION":50.0081,"RA_OF_ASC_NODE":265.4388,"ARG_OF_PERICENTER":20.7734,"MEAN_ANOMALY":339.3397,"EPHEMERIS_TYPE":0,"CLASSIFICATION_TYPE":"U","NORAD_CAT_ID":43914,"ELEMENT_SET_NO":999,"REV_AT_EPOCH":18134,"BSTAR":0.0001,"MEAN_MOTION_DOT":-7.1e-7,"MEAN_MOTION_DDOT":0},{"OBJECT_NAME":"YUNHAI-2 6","OBJECT_ID":"2018-112G","EPOCH":"2022-09-08T02:09:59.618304","MEAN_MOTION":14.27797384,"ECCENTRICITY":0.0007637,"INCLINATION":50.0155,"RA_OF_ASC_NODE":311.4568,"ARG_OF_PERICENTER":172.5921,"MEAN_ANOMALY":187.5109,"EPHEMERIS_TYPE":0,"CLASSIFICATION_TYPE":"U","NORAD_CAT_ID":43915,"ELEMENT_SET_NO":999,"REV_AT_EPOCH":19150,"BSTAR":9.8724e-5,"MEAN_MOTION_DOT":8.4e-7,"MEAN_MOTION_DDOT":0},{"OBJECT_NAME":"CHINASAT 2D (ZX 2D)","OBJECT_ID":"2019-001A","EPOCH":"2022-09-07T21:27:45.643392","MEAN_MOTION":1.00272492,"ECCENTRICITY":7.66e-5,"INCLINATION":0.0452,"RA_OF_ASC_NODE":330.6028,"ARG_OF_PERICENTER":65.8182,"MEAN_ANOMALY":42.4985,"EPHEMERIS_TYPE":0,"CLASSIFICATION_TYPE":"U","NORAD_CAT_ID":43920,"ELEMENT_SET_NO":999,"REV_AT_EPOCH":4024,"BSTAR":0,"MEAN_MOTION_DOT":-3.57e-6,"MEAN_MOTION_DDOT":0},{"OBJECT_NAME":"IRIDIUM 180","OBJECT_ID":"2019-002A","EPOCH":"2022-09-07T20:36:47.288160","MEAN_MOTION":14.34218305,"ECCENTRICITY":0.0002327,"INCLINATION":86.4009,"RA_OF_ASC_NODE":209.5735,"ARG_OF_PERICENTER":71.2529,"MEAN_ANOMALY":288.8919,"EPHEMERIS_TYPE":0,"CLASSIFICATION_TYPE":"U","NORAD_CAT_ID":43922,"ELEMENT_SET_NO":999,"REV_AT_EPOCH":19143,"BSTAR":5.9208e-5,"MEAN_MOTION_DOT":1.86e-6,"MEAN_MOTION_DDOT":0},{"OBJECT_NAME":"IRIDIUM 176","OBJECT_ID":"2019-002B","EPOCH":"2022-09-07T20:12:12.841056","MEAN_MOTION":14.72253325,"ECCENTRICITY":0.0002426,"INCLINATION":86.6143,"RA_OF_ASC_NODE":209.6172,"ARG_OF_PERICENTER":86.3248,"MEAN_ANOMALY":273.8247,"EPHEMERIS_TYPE":0,"CLASSIFICATION_TYPE":"U","NORAD_CAT_ID":43923,"ELEMENT_SET_NO":999,"REV_AT_EPOCH":19645,"BSTAR":9.6388e-5,"MEAN_MOTION_DOT":6.32e-6,"MEAN_MOTION_DDOT":0},{"OBJECT_NAME":"IRIDIUM 168","OBJECT_ID":"2019-002C","EPOCH":"2022-09-07T22:08:06.684576","MEAN_MOTION":14.34215619,"ECCENTRICITY":0.0002141,"INCLINATION":86.401,"RA_OF_ASC_NODE":209.5854,"ARG_OF_PERICENTER":79.7014,"MEAN_ANOMALY":280.4423,"EPHEMERIS_TYPE":0,"CLASSIFICATION_TYPE":"U","NORAD_CAT_ID":43924,"ELEMENT_SET_NO":999,"REV_AT_EPOCH":19142,"BSTAR":5.9488e-5,"MEAN_MOTION_DOT":1.86e-6,"MEAN_MOTION_DDOT":0},{"OBJECT_NAME":"IRIDIUM 173","OBJECT_ID":"2019-002D","EPOCH":"2022-09-07T15:07:58.681056","MEAN_MOTION":14.34221458,"ECCENTRICITY":0.0002237,"INCLINATION":86.4007,"RA_OF_ASC_NODE":209.6524,"ARG_OF_PERICENTER":79.4173,"MEAN_ANOMALY":280.7275,"EPHEMERIS_TYPE":0,"CLASSIFICATION_TYPE":"U","NORAD_CAT_ID":43925,"ELEMENT_SET_NO":999,"REV_AT_EPOCH":19136,"BSTAR":6.0179e-5,"MEAN_MOTION_DOT":1.88e-6,"MEAN_MOTION_DDOT":0},{"OBJECT_NAME":"IRIDIUM 169","OBJECT_ID":"2019-002E","EPOCH":"2022-09-07T17:26:10.397472","MEAN_MOTION":14.38606309,"ECCENTRICITY":0.000408,"INCLINATION":86.4199,"RA_OF_ASC_NODE":241.1872,"ARG_OF_PERICENTER":171.6255,"MEAN_ANOMALY":188.5013,"EPHEMERIS_TYPE":0,"CLASSIFICATION_TYPE":"U","NORAD_CAT_ID":43926,"ELEMENT_SET_NO":999,"REV_AT_EPOCH":19204,"BSTAR":3.607e-5,"MEAN_MOTION_DOT":1.3e-6,"MEAN_MOTION_DDOT":0},{"OBJECT_NAME":"IRIDIUM 172","OBJECT_ID":"2019-002F","EPOCH":"2022-09-07T14:58:51.251520","MEAN_MOTION":14.34218178,"ECCENTRICITY":0.0002235,"INCLINATION":86.4008,"RA_OF_ASC_NODE":209.6589,"ARG_OF_PERICENTER":77.5826,"MEAN_ANOMALY":282.5619,"EPHEMERIS_TYPE":0,"CLASSIFICATION_TYPE":"U","NORAD_CAT_ID":43927,"ELEMENT_SET_NO":999,"REV_AT_EPOCH":19137,"BSTAR":5.9652e-5,"MEAN_MOTION_DOT":1.87e-6,"MEAN_MOTION_DDOT":0},{"OBJECT_NAME":"IRIDIUM 175","OBJECT_ID":"2019-002G","EPOCH":"2022-09-07T23:19:04.391904","MEAN_MOTION":14.72257892,"ECCENTRICITY":0.0002315,"INCLINATION":86.6147,"RA_OF_ASC_NODE":209.3959,"ARG_OF_PERICENTER":84.8304,"MEAN_ANOMALY":275.3177,"EPHEMERIS_TYPE":0,"CLASSIFICATION_TYPE":"U","NORAD_CAT_ID":43928,"ELEMENT_SET_NO":999,"REV_AT_EPOCH":19646,"BSTAR":9.8231e-5,"MEAN_MOTION_DOT":6.44e-6,"MEAN_MOTION_DDOT":0},{"OBJECT_NAME":"IRIDIUM 171","OBJECT_ID":"2019-002H","EPOCH":"2022-09-07T14:31:27.082848","MEAN_MOTION":14.34217082,"ECCENTRICITY":0.0002124,"INCLINATION":86.4016,"RA_OF_ASC_NODE":209.8198,"ARG_OF_PERICENTER":79.3783,"MEAN_ANOMALY":280.7652,"EPHEMERIS_TYPE":0,"CLASSIFICATION_TYPE":"U","NORAD_CAT_ID":43929,"ELEMENT_SET_NO":999,"REV_AT_EPOCH":19136,"BSTAR":5.8323e-5,"MEAN_MOTION_DOT":1.83e-6,"MEAN_MOTION_DDOT":0},{"OBJECT_NAME":"IRIDIUM 170","OBJECT_ID":"2019-002J","EPOCH":"2022-09-07T17:05:22.796160","MEAN_MOTION":14.72254305,"ECCENTRICITY":0.000239,"INCLINATION":86.6143,"RA_OF_ASC_NODE":209.6766,"ARG_OF_PERICENTER":89.6822,"MEAN_ANOMALY":270.4669,"EPHEMERIS_TYPE":0,"CLASSIFICATION_TYPE":"U","NORAD_CAT_ID":43930,"ELEMENT_SET_NO":999,"REV_AT_EPOCH":19644,"BSTAR":9.3542e-5,"MEAN_MOTION_DOT":6.14e-6,"MEAN_MOTION_DDOT":0}]